CCSDS_OMM_VERS = 2.0
CREATION_DATE  = 
ORIGINATOR     = 

OBJECT_NAME    = ISS (ZARYA)
OBJECT_ID      = 1998-067A
CENTER_NAME    = EARTH
REF_FRAME      = TEME
TIME_SYSTEM    = UTC
MEAN_ELEMENT_THEORY = SGP/SGP4

EPOCH          = 2026-03-27T20:12:32.650848
MEAN_MOTION    = 15.48591753
ECCENTRICITY   = .0006212
INCLINATION    = 51.6344
RA_OF_ASC_NODE = 342.6225
ARG_OF_PERICENTER = 240.1567
MEAN_ANOMALY   = 119.8804

EPHEMERIS_TYPE = 0
CLASSIFICATION_TYPE = U
NORAD_CAT_ID   = 25544
ELEMENT_SET_NO = 999
REV_AT_EPOCH   = 55914
BSTAR          = .22728E-3
MEAN_MOTION_DOT = .1192E-3
MEAN_MOTION_DDOT = 0

CCSDS_OMM_VERS = 2.0
CREATION_DATE  = 
ORIGINATOR     = 

OBJECT_NAME    = POISK
OBJECT_ID      = 2009-060A
CENTER_NAME    = EARTH
REF_FRAME      = TEME
TIME_SYSTEM    = UTC
MEAN_ELEMENT_THEORY = SGP/SGP4

EPOCH          = 2026-03-27T20:12:32.650848
MEAN_MOTION    = 15.48591753
ECCENTRICITY   = .0006212
INCLINATION    = 51.6344
RA_OF_ASC_NODE = 342.6225
ARG_OF_PERICENTER = 240.1567
MEAN_ANOMALY   = 119.8804

EPHEMERIS_TYPE = 0
CLASSIFICATION_TYPE = U
NORAD_CAT_ID   = 36086
ELEMENT_SET_NO = 999
REV_AT_EPOCH   = 55892
BSTAR          = .22728E-3
MEAN_MOTION_DOT = .1192E-3
MEAN_MOTION_DDOT = 0

CCSDS_OMM_VERS = 2.0
CREATION_DATE  = 
ORIGINATOR     = 

OBJECT_NAME    = CSS (TIANHE)
OBJECT_ID      = 2021-035A
CENTER_NAME    = EARTH
REF_FRAME      = TEME
TIME_SYSTEM    = UTC
MEAN_ELEMENT_THEORY = SGP/SGP4

EPOCH          = 2026-03-27T19:40:26.533056
MEAN_MOTION    = 15.61560654
ECCENTRICITY   = .0004161
INCLINATION    = 41.4669
RA_OF_ASC_NODE = 97.7682
ARG_OF_PERICENTER = 40.1011
MEAN_ANOMALY   = 320.0134

EPHEMERIS_TYPE = 0
CLASSIFICATION_TYPE = U
NORAD_CAT_ID   = 48274
ELEMENT_SET_NO = 999
REV_AT_EPOCH   = 28044
BSTAR          = .18751E-3
MEAN_MOTION_DOT = .16258E-3
MEAN_MOTION_DDOT = 0

CCSDS_OMM_VERS = 2.0
CREATION_DATE  = 
ORIGINATOR     = 

OBJECT_NAME    = ISS (NAUKA)
OBJECT_ID      = 2021-066A
CENTER_NAME    = EARTH
REF_FRAME      = TEME
TIME_SYSTEM    = UTC
MEAN_ELEMENT_THEORY = SGP/SGP4

EPOCH          = 2026-03-27T20:12:32.650848
MEAN_MOTION    = 15.48591753
ECCENTRICITY   = .0006212
INCLINATION    = 51.6344
RA_OF_ASC_NODE = 342.6225
ARG_OF_PERICENTER = 240.1567
MEAN_ANOMALY   = 119.8804

EPHEMERIS_TYPE = 0
CLASSIFICATION_TYPE = U
NORAD_CAT_ID   = 49044
ELEMENT_SET_NO = 999
REV_AT_EPOCH   = 55896
BSTAR          = .22728E-3
MEAN_MOTION_DOT = .1192E-3
MEAN_MOTION_DDOT = 0

CCSDS_OMM_VERS = 2.0
CREATION_DATE  = 
ORIGINATOR     = 

OBJECT_NAME    = FREGAT DEB
OBJECT_ID      = 2011-037PF
CENTER_NAME    = EARTH
REF_FRAME      = TEME
TIME_SYSTEM    = UTC
MEAN_ELEMENT_THEORY = SGP/SGP4

EPOCH          = 2026-03-27T17:34:45.819264
MEAN_MOTION    = 12.40720459
ECCENTRICITY   = .0961626
INCLINATION    = 51.6460
RA_OF_ASC_NODE = 246.5783
ARG_OF_PERICENTER = 100.7568
MEAN_ANOMALY   = 270.2883

EPHEMERIS_TYPE = 0
CLASSIFICATION_TYPE = U
NORAD_CAT_ID   = 49271
ELEMENT_SET_NO = 999
REV_AT_EPOCH   = 21493
BSTAR          = .12463E-1
MEAN_MOTION_DOT = .874E-4
MEAN_MOTION_DDOT = 0

CCSDS_OMM_VERS = 2.0
CREATION_DATE  = 
ORIGINATOR     = 

OBJECT_NAME    = CSS (WENTIAN)
OBJECT_ID      = 2022-085A
CENTER_NAME    = EARTH
REF_FRAME      = TEME
TIME_SYSTEM    = UTC
MEAN_ELEMENT_THEORY = SGP/SGP4

EPOCH          = 2026-03-27T19:40:26.533056
MEAN_MOTION    = 15.61560654
ECCENTRICITY   = .0004161
INCLINATION    = 41.4669
RA_OF_ASC_NODE = 97.7682
ARG_OF_PERICENTER = 40.1011
MEAN_ANOMALY   = 320.0134

EPHEMERIS_TYPE = 0
CLASSIFICATION_TYPE = U
NORAD_CAT_ID   = 53239
ELEMENT_SET_NO = 999
REV_AT_EPOCH   = 28056
BSTAR          = .18751E-3
MEAN_MOTION_DOT = .16258E-3
MEAN_MOTION_DDOT = 0

CCSDS_OMM_VERS = 2.0
CREATION_DATE  = 
ORIGINATOR     = 

OBJECT_NAME    = CSS (MENGTIAN)
OBJECT_ID      = 2022-143A
CENTER_NAME    = EARTH
REF_FRAME      = TEME
TIME_SYSTEM    = UTC
MEAN_ELEMENT_THEORY = SGP/SGP4

EPOCH          = 2026-03-27T19:40:26.533056
MEAN_MOTION    = 15.61560654
ECCENTRICITY   = .0004161
INCLINATION    = 41.4669
RA_OF_ASC_NODE = 97.7682
ARG_OF_PERICENTER = 40.1011
MEAN_ANOMALY   = 320.0134

EPHEMERIS_TYPE = 0
CLASSIFICATION_TYPE = U
NORAD_CAT_ID   = 54216
ELEMENT_SET_NO = 999
REV_AT_EPOCH   = 28056
BSTAR          = .18751E-3
MEAN_MOTION_DOT = .16258E-3
MEAN_MOTION_DDOT = 0

CCSDS_OMM_VERS = 2.0
CREATION_DATE  = 
ORIGINATOR     = 

OBJECT_NAME    = TIANZHOU-9
OBJECT_ID      = 2025-149A
CENTER_NAME    = EARTH
REF_FRAME      = TEME
TIME_SYSTEM    = UTC
MEAN_ELEMENT_THEORY = SGP/SGP4

EPOCH          = 2026-03-27T19:40:26.533056
MEAN_MOTION    = 15.61560654
ECCENTRICITY   = .0004161
INCLINATION    = 41.4669
RA_OF_ASC_NODE = 97.7682
ARG_OF_PERICENTER = 40.1011
MEAN_ANOMALY   = 320.0134

EPHEMERIS_TYPE = 0
CLASSIFICATION_TYPE = U
NORAD_CAT_ID   = 64786
ELEMENT_SET_NO = 999
REV_AT_EPOCH   = 28056
BSTAR          = .18751E-3
MEAN_MOTION_DOT = .16258E-3
MEAN_MOTION_DDOT = 0

CCSDS_OMM_VERS = 2.0
CREATION_DATE  = 
ORIGINATOR     = 

OBJECT_NAME    = PROGRESS-MS 32
OBJECT_ID      = 2025-204A
CENTER_NAME    = EARTH
REF_FRAME      = TEME
TIME_SYSTEM    = UTC
MEAN_ELEMENT_THEORY = SGP/SGP4

EPOCH          = 2026-03-27T09:22:03.432864
MEAN_MOTION    = 15.48581373
ECCENTRICITY   = .00062307
INCLINATION    = 51.6344
RA_OF_ASC_NODE = 344.8561
ARG_OF_PERICENTER = 238.3142
MEAN_ANOMALY   = 121.7239

EPHEMERIS_TYPE = 0
CLASSIFICATION_TYPE = U
NORAD_CAT_ID   = 65586
ELEMENT_SET_NO = 999
REV_AT_EPOCH   = 55450
BSTAR          = .24174273E-3
MEAN_MOTION_DOT = .12703E-3
MEAN_MOTION_DDOT = 0

CCSDS_OMM_VERS = 2.0
CREATION_DATE  = 
ORIGINATOR     = 

OBJECT_NAME    = YOTSUBA-KULOVER
OBJECT_ID      = 1998-067XN
CENTER_NAME    = EARTH
REF_FRAME      = TEME
TIME_SYSTEM    = UTC
MEAN_ELEMENT_THEORY = SGP/SGP4

EPOCH          = 2026-03-27T01:04:32.975904
MEAN_MOTION    = 15.90043660
ECCENTRICITY   = .00054136
INCLINATION    = 51.6189
RA_OF_ASC_NODE = 326.6887
ARG_OF_PERICENTER = 198.9567
MEAN_ANOMALY   = 161.1238

EPHEMERIS_TYPE = 0
CLASSIFICATION_TYPE = U
NORAD_CAT_ID   = 65941
ELEMENT_SET_NO = 999
REV_AT_EPOCH   = 2625
BSTAR          = .11630662E-2
MEAN_MOTION_DOT = .355238E-2
MEAN_MOTION_DDOT = .57819267E-4

CCSDS_OMM_VERS = 2.0
CREATION_DATE  = 
ORIGINATOR     = 

OBJECT_NAME    = BOTAN
OBJECT_ID      = 1998-067XQ
CENTER_NAME    = EARTH
REF_FRAME      = TEME
TIME_SYSTEM    = UTC
MEAN_ELEMENT_THEORY = SGP/SGP4

EPOCH          = 2026-03-27T08:52:06.703392
MEAN_MOTION    = 15.89414772
ECCENTRICITY   = .0005989
INCLINATION    = 51.6222
RA_OF_ASC_NODE = 325.1299
ARG_OF_PERICENTER = 199.5412
MEAN_ANOMALY   = 160.5365

EPHEMERIS_TYPE = 0
CLASSIFICATION_TYPE = U
NORAD_CAT_ID   = 65943
ELEMENT_SET_NO = 999
REV_AT_EPOCH   = 2630
BSTAR          = .10445E-2
MEAN_MOTION_DOT = .322871E-2
MEAN_MOTION_DDOT = 0

CCSDS_OMM_VERS = 2.0
CREATION_DATE  = 
ORIGINATOR     = 

OBJECT_NAME    = HRC MONOBLOCK CAMERA
OBJECT_ID      = 1998-067XR
CENTER_NAME    = EARTH
REF_FRAME      = TEME
TIME_SYSTEM    = UTC
MEAN_ELEMENT_THEORY = SGP/SGP4

EPOCH          = 2026-03-27T20:33:06.010848
MEAN_MOTION    = 15.64104445
ECCENTRICITY   = .0003825
INCLINATION    = 51.6290
RA_OF_ASC_NODE = 333.7145
ARG_OF_PERICENTER = 177.1157
MEAN_ANOMALY   = 182.9861

EPHEMERIS_TYPE = 0
CLASSIFICATION_TYPE = U
NORAD_CAT_ID   = 66052
ELEMENT_SET_NO = 999
REV_AT_EPOCH   = 2523
BSTAR          = .5037E-3
MEAN_MOTION_DOT = .48459E-3
MEAN_MOTION_DDOT = 0

